{
  "type": "FeatureCollection",
  "features": [
    {
      "type": "Feature",
      "properties": {
        "norad_id": 66983,
        "name": "STARLINK-36145",
        "group": "last-30-days",
        "lat": 17.153550682434755,
        "lon": 148.16064049133365,
        "alt_km": 313.9006896441015,
        "timestamp": "2025-12-18T23:35:47.783759+00:00",
        "meta_object_name": "STARLINK-36145",
        "meta_object_id": "2025-288AA",
        "meta_epoch": "2025-12-18T14:00:03.000384",
        "meta_mean_motion": 15.86389861,
        "meta_eccentricity": 0.00016148,
        "meta_inclination": 43.0013,
        "meta_ra_of_asc_node": 131.2819,
        "meta_arg_of_pericenter": 270.4331,
        "meta_mean_anomaly": 350.0244,
        "meta_ephemeris_type": 0,
        "meta_classification_type": "U",
        "meta_norad_cat_id": 66983,
        "meta_element_set_no": 999,
        "meta_rev_at_epoch": 277,
        "meta_bstar": -0.0067420805,
        "meta_mean_motion_dot": -0.0154264,
        "meta_mean_motion_ddot": 0,
        "tle_line1": "1 66983U 25288AA  25352.58336806 -.01542640  00000+0 -67421-2 0  9998",
        "tle_line2": "2 66983  43.0013 131.2819 0001614 270.4331 350.0244 15.86389861  2771"
      },
      "geometry": {
        "type": "Point",
        "coordinates": [
          148.16064049133365,
          17.153550682434755
        ]
      }
    },
    {
      "type": "Feature",
      "properties": {
        "norad_id": 66984,
        "name": "STARLINK-35591",
        "group": "last-30-days",
        "lat": 15.700841268911212,
        "lon": 146.37926851867294,
        "alt_km": 314.14362695817545,
        "timestamp": "2025-12-18T23:35:47.783769+00:00",
        "meta_object_name": "STARLINK-35591",
        "meta_object_id": "2025-288AB",
        "meta_epoch": "2025-12-18T14:00:03.000384",
        "meta_mean_motion": 15.8638339,
        "meta_eccentricity": 0.00015198,
        "meta_inclination": 43.0014,
        "meta_ra_of_asc_node": 131.287,
        "meta_arg_of_pericenter": 267.3972,
        "meta_mean_anomaly": 350.8257,
        "meta_ephemeris_type": 0,
        "meta_classification_type": "U",
        "meta_norad_cat_id": 66984,
        "meta_element_set_no": 999,
        "meta_rev_at_epoch": 277,
        "meta_bstar": -0.0067421524,
        "meta_mean_motion_dot": -0.01542141,
        "meta_mean_motion_ddot": 0,
        "tle_line1": "1 66984U 25288AB  25352.58336806 -.01542141  00000+0 -67422-2 0  9996",
        "tle_line2": "2 66984  43.0014 131.2870 0001519 267.3972 350.8257 15.86383390  2773"
      },
      "geometry": {
        "type": "Point",
        "coordinates": [
          146.37926851867294,
          15.700841268911212
        ]
      }
    },
    {
      "type": "Feature",
      "properties": {
        "norad_id": 66985,
        "name": "STARLINK-36103",
        "group": "last-30-days",
        "lat": 18.674669248956757,
        "lon": 150.07721284594112,
        "alt_km": 313.624440273632,
        "timestamp": "2025-12-18T23:35:47.783779+00:00",
        "meta_object_name": "STARLINK-36103",
        "meta_object_id": "2025-288AC",
        "meta_epoch": "2025-12-18T14:00:03.000384",
        "meta_mean_motion": 15.86407255,
        "meta_eccentricity": 0.00014084,
        "meta_inclination": 43.0013,
        "meta_ra_of_asc_node": 131.2759,
        "meta_arg_of_pericenter": 271.5907,
        "meta_mean_anomaly": 351.2355,
        "meta_ephemeris_type": 0,
        "meta_classification_type": "U",
        "meta_norad_cat_id": 66985,
        "meta_element_set_no": 999,
        "meta_rev_at_epoch": 277,
        "meta_bstar": -0.0068356673,
        "meta_mean_motion_dot": -0.01562454,
        "meta_mean_motion_ddot": 0,
        "tle_line1": "1 66985U 25288AC  25352.58336806 -.01562454  00000+0 -68357-2 0  9994",
        "tle_line2": "2 66985  43.0013 131.2759 0001408 271.5907 351.2355 15.86407255  2772"
      },
      "geometry": {
        "type": "Point",
        "coordinates": [
          150.07721284594112,
          18.674669248956757
        ]
      }
    },
    {
      "type": "Feature",
      "properties": {
        "norad_id": 66986,
        "name": "STARLINK-36135",
        "group": "last-30-days",
        "lat": 20.17850894700597,
        "lon": 152.03135470482633,
        "alt_km": 313.56210052381994,
        "timestamp": "2025-12-18T23:35:47.783788+00:00",
        "meta_object_name": "STARLINK-36135",
        "meta_object_id": "2025-288AD",
        "meta_epoch": "2025-12-18T14:00:03.000384",
        "meta_mean_motion": 15.86412688,
        "meta_eccentricity": 0.00014889,
        "meta_inclination": 43.0011,
        "meta_ra_of_asc_node": 131.2692,
        "meta_arg_of_pericenter": 266.8191,
        "meta_mean_anomaly": 358.3852,
        "meta_ephemeris_type": 0,
        "meta_classification_type": "U",
        "meta_norad_cat_id": 66986,
        "meta_element_set_no": 999,
        "meta_rev_at_epoch": 277,
        "meta_bstar": -0.0068624057,
        "meta_mean_motion_dot": -0.01568254,
        "meta_mean_motion_ddot": 0,
        "tle_line1": "1 66986U 25288AD  25352.58336806 -.01568254  00000+0 -68624-2 0  9996",
        "tle_line2": "2 66986  43.0011 131.2692 0001488 266.8191 358.3852 15.86412688  2773"
      },
      "geometry": {
        "type": "Point",
        "coordinates": [
          152.03135470482633,
          20.17850894700597
        ]
      }
    },
    {
      "type": "Feature",
      "properties": {
        "norad_id": 66987,
        "name": "STARLINK-36147",
        "group": "last-30-days",
        "lat": 21.55498874666053,
        "lon": 153.88030900483588,
        "alt_km": 313.11504899835927,
        "timestamp": "2025-12-18T23:35:47.783806+00:00",
        "meta_object_name": "STARLINK-36147",
        "meta_object_id": "2025-288AE",
        "meta_epoch": "2025-12-18T14:00:03.000384",
        "meta_mean_motion": 15.86396882,
        "meta_eccentricity": 0.00013308,
        "meta_inclination": 43.0015,
        "meta_ra_of_asc_node": 131.2642,
        "meta_arg_of_pericenter": 275.3542,
        "meta_mean_anomaly": 352.0651,
        "meta_ephemeris_type": 0,
        "meta_classification_type": "U",
        "meta_norad_cat_id": 66987,
        "meta_element_set_no": 999,
        "meta_rev_at_epoch": 277,
        "meta_bstar": -0.0067338592,
        "meta_mean_motion_dot": -0.01541227,
        "meta_mean_motion_ddot": 0,
        "tle_line1": "1 66987U 25288AE  25352.58336806 -.01541227  00000+0 -67339-2 0  9990",
        "tle_line2": "2 66987  43.0015 131.2642 0001330 275.3542 352.0651 15.86396882  2779"
      },
      "geometry": {
        "type": "Point",
        "coordinates": [
          153.88030900483588,
          21.55498874666053
        ]
      }
    },
    {
      "type": "Feature",
      "properties": {
        "norad_id": 66988,
        "name": "YAOGAN-47",
        "group": "last-30-days",
        "lat": 8.148943076225894,
        "lon": 57.031787797698236,
        "alt_km": 497.76154641048015,
        "timestamp": "2025-12-18T23:35:47.783820+00:00",
        "meta_object_name": "YAOGAN-47",
        "meta_object_id": "2025-289A",
        "meta_epoch": "2025-12-15T02:32:19.481856",
        "meta_mean_motion": 15.23184629,
        "meta_eccentricity": 7.87e-05,
        "meta_inclination": 97.5271,
        "meta_ra_of_asc_node": 54.2297,
        "meta_arg_of_pericenter": 67.3408,
        "meta_mean_anomaly": 292.7912,
        "meta_ephemeris_type": 0,
        "meta_classification_type": "U",
        "meta_norad_cat_id": 66988,
        "meta_element_set_no": 999,
        "meta_rev_at_epoch": 90,
        "meta_bstar": 0.00011849353,
        "meta_mean_motion_dot": 2.729e-05,
        "meta_mean_motion_ddot": 0,
        "tle_line1": "1 66988U 25289A   25349.10578104  .00002729  00000+0  11849-3 0  9997",
        "tle_line2": "2 66988  97.5271  54.2297 0000787  67.3408 292.7912 15.23184629   901"
      },
      "geometry": {
        "type": "Point",
        "coordinates": [
          57.031787797698236,
          8.148943076225894
        ]
      }
    },
    {
      "type": "Feature",
      "properties": {
        "norad_id": 66989,
        "name": "CZ-4B R/B",
        "group": "last-30-days",
        "lat": 73.3908361991634,
        "lon": -94.90869630320802,
        "alt_km": 411.04051803620496,
        "timestamp": "2025-12-18T23:35:47.783830+00:00",
        "meta_object_name": "CZ-4B R/B",
        "meta_object_id": "2025-289B",
        "meta_epoch": "2025-12-18T10:54:25.623072",
        "meta_mean_motion": 15.68606526,
        "meta_eccentricity": 0.01446318,
        "meta_inclination": 97.5258,
        "meta_ra_of_asc_node": 58.214,
        "meta_arg_of_pericenter": 341.3173,
        "meta_mean_anomaly": 18.2809,
        "meta_ephemeris_type": 0,
        "meta_classification_type": "U",
        "meta_norad_cat_id": 66989,
        "meta_element_set_no": 999,
        "meta_rev_at_epoch": 146,
        "meta_bstar": 0.00060706589,
        "meta_mean_motion_dot": 0.00125331,
        "meta_mean_motion_ddot": 6.732073e-06,
        "tle_line1": "1 66989U 25289B   25352.45446323  .00125331  67321-5  60707-3 0  9994",
        "tle_line2": "2 66989  97.5258  58.2140 0144631 341.3173  18.2809 15.68606526  1461"
      },
      "geometry": {
        "type": "Point",
        "coordinates": [
          -94.90869630320802,
          73.3908361991634
        ]
      }
    }
  ]
}